[{"OBJECT_NAME":"ONEWEB-0299","OBJECT_ID":"2021-075P","EPOCH":"2026-03-09T20:51:33.867072","MEAN_MOTION":13.17648834,"ECCENTRICITY":0.00018158,"INCLINATION":87.9164,"RA_OF_ASC_NODE":25.5602,"ARG_OF_PERICENTER":75.6996,"MEAN_ANOMALY":284.4338,"EPHEMERIS_TYPE":0,"CLASSIFICATION_TYPE":"U","NORAD_CAT_ID":49088,"ELEMENT_SET_NO":999,"REV_AT_EPOCH":22052,"BSTAR":-0.00032614039,"MEAN_MOTION_DOT":-1.14e-6,"MEAN_MOTION_DDOT":0},{"OBJECT_NAME":"DELTA 1 DEB","OBJECT_ID":"1975-052MN","EPOCH":"2026-03-08T16:41:22.952256","MEAN_MOTION":13.30821048,"ECCENTRICITY":0.00680262,"INCLINATION":99.765,"RA_OF_ASC_NODE":217.5591,"ARG_OF_PERICENTER":234.866,"MEAN_ANOMALY":140.1754,"EPHEMERIS_TYPE":0,"CLASSIFICATION_TYPE":"U","NORAD_CAT_ID":42653,"ELEMENT_SET_NO":999,"REV_AT_EPOCH":59713,"BSTAR":0.00012393727,"MEAN_MOTION_DOT":1.7e-7,"MEAN_MOTION_DDOT":0}]
